<?xml version="1.0" encoding="UTF-8"?>
<ndm xmlns:xsi="http://www.w3.org/2001/XMLSchema-instance" xsi:noNamespaceSchemaLocation="https://sanaregistry.org/r/ndmxml_unqualified/ndmxml-2.0.0-master-2.0.xsd">
<omm id="CCSDS_OMM_VERS" version="2.0">
<header><CREATION_DATE/><ORIGINATOR/></header><body><segment><metadata><OBJECT_NAME>ORBCOMM FM103</OBJECT_NAME><OBJECT_ID>2014-040F</OBJECT_ID><CENTER_NAME>EARTH</CENTER_NAME><REF_FRAME>TEME</REF_FRAME><TIME_SYSTEM>UTC</TIME_SYSTEM><MEAN_ELEMENT_THEORY>SGP4</MEAN_ELEMENT_THEORY></metadata><data><meanElements><EPOCH>2025-05-31T12:51:44.205984</EPOCH><MEAN_MOTION>14.58147403</MEAN_MOTION><ECCENTRICITY>.0001968</ECCENTRICITY><INCLINATION>47.0052</INCLINATION><RA_OF_ASC_NODE>96.4385</RA_OF_ASC_NODE><ARG_OF_PERICENTER>228.7554</ARG_OF_PERICENTER><MEAN_ANOMALY>131.3162</MEAN_ANOMALY></meanElements><tleParameters><EPHEMERIS_TYPE>0</EPHEMERIS_TYPE><CLASSIFICATION_TYPE>U</CLASSIFICATION_TYPE><NORAD_CAT_ID>40091</NORAD_CAT_ID><ELEMENT_SET_NO>999</ELEMENT_SET_NO><REV_AT_EPOCH>56167</REV_AT_EPOCH><BSTAR>.16951E-3</BSTAR><MEAN_MOTION_DOT>.619E-5</MEAN_MOTION_DOT><MEAN_MOTION_DDOT>0</MEAN_MOTION_DDOT></tleParameters></data></segment></body></omm>
<omm id="CCSDS_OMM_VERS" version="2.0">
<header><CREATION_DATE/><ORIGINATOR/></header><body><segment><metadata><OBJECT_NAME>ORBCOMM FM114</OBJECT_NAME><OBJECT_ID>2015-081A</OBJECT_ID><CENTER_NAME>EARTH</CENTER_NAME><REF_FRAME>TEME</REF_FRAME><TIME_SYSTEM>UTC</TIME_SYSTEM><MEAN_ELEMENT_THEORY>SGP4</MEAN_ELEMENT_THEORY></metadata><data><meanElements><EPOCH>2025-05-31T06:48:50.194656</EPOCH><MEAN_MOTION>14.58188425</MEAN_MOTION><ECCENTRICITY>.0002563</ECCENTRICITY><INCLINATION>47.0044</INCLINATION><RA_OF_ASC_NODE>6.6869</RA_OF_ASC_NODE><ARG_OF_PERICENTER>270.7179</ARG_OF_PERICENTER><MEAN_ANOMALY>89.3413</MEAN_ANOMALY></meanElements><tleParameters><EPHEMERIS_TYPE>0</EPHEMERIS_TYPE><CLASSIFICATION_TYPE>U</CLASSIFICATION_TYPE><NORAD_CAT_ID>41179</NORAD_CAT_ID><ELEMENT_SET_NO>999</ELEMENT_SET_NO><REV_AT_EPOCH>50200</REV_AT_EPOCH><BSTAR>.1494E-3</BSTAR><MEAN_MOTION_DOT>.526E-5</MEAN_MOTION_DOT><MEAN_MOTION_DDOT>0</MEAN_MOTION_DDOT></tleParameters></data></segment></body></omm>
<omm id="CCSDS_OMM_VERS" version="2.0">
<header><CREATION_DATE/><ORIGINATOR/></header><body><segment><metadata><OBJECT_NAME>ORBCOMM FM119</OBJECT_NAME><OBJECT_ID>2015-081B</OBJECT_ID><CENTER_NAME>EARTH</CENTER_NAME><REF_FRAME>TEME</REF_FRAME><TIME_SYSTEM>UTC</TIME_SYSTEM><MEAN_ELEMENT_THEORY>SGP4</MEAN_ELEMENT_THEORY></metadata><data><meanElements><EPOCH>2025-05-31T14:43:48.558144</EPOCH><MEAN_MOTION>14.58123069</MEAN_MOTION><ECCENTRICITY>.0001434</ECCENTRICITY><INCLINATION>47.0008</INCLINATION><RA_OF_ASC_NODE>274.4359</RA_OF_ASC_NODE><ARG_OF_PERICENTER>300.5956</ARG_OF_PERICENTER><MEAN_ANOMALY>59.4788</MEAN_ANOMALY></meanElements><tleParameters><EPHEMERIS_TYPE>0</EPHEMERIS_TYPE><CLASSIFICATION_TYPE>U</CLASSIFICATION_TYPE><NORAD_CAT_ID>41180</NORAD_CAT_ID><ELEMENT_SET_NO>999</ELEMENT_SET_NO><REV_AT_EPOCH>50330</REV_AT_EPOCH><BSTAR>.15545E-3</BSTAR><MEAN_MOTION_DOT>.553E-5</MEAN_MOTION_DOT><MEAN_MOTION_DDOT>0</MEAN_MOTION_DDOT></tleParameters></data></segment></body></omm>
<omm id="CCSDS_OMM_VERS" version="2.0">
<header><CREATION_DATE/><ORIGINATOR/></header><body><segment><metadata><OBJECT_NAME>ORBCOMM FM105</OBJECT_NAME><OBJECT_ID>2015-081C</OBJECT_ID><CENTER_NAME>EARTH</CENTER_NAME><REF_FRAME>TEME</REF_FRAME><TIME_SYSTEM>UTC</TIME_SYSTEM><MEAN_ELEMENT_THEORY>SGP4</MEAN_ELEMENT_THEORY></metadata><data><meanElements><EPOCH>2025-05-31T15:06:32.159232</EPOCH><MEAN_MOTION>14.45210052</MEAN_MOTION><ECCENTRICITY>.0002443</ECCENTRICITY><INCLINATION>47.0018</INCLINATION><RA_OF_ASC_NODE>277.7001</RA_OF_ASC_NODE><ARG_OF_PERICENTER>246.5828</ARG_OF_PERICENTER><MEAN_ANOMALY>113.4796</MEAN_ANOMALY></meanElements><tleParameters><EPHEMERIS_TYPE>0</EPHEMERIS_TYPE><CLASSIFICATION_TYPE>U</CLASSIFICATION_TYPE><NORAD_CAT_ID>41181</NORAD_CAT_ID><ELEMENT_SET_NO>999</ELEMENT_SET_NO><REV_AT_EPOCH>49846</REV_AT_EPOCH><BSTAR>.10933E-3</BSTAR><MEAN_MOTION_DOT>.229E-5</MEAN_MOTION_DOT><MEAN_MOTION_DDOT>0</MEAN_MOTION_DDOT></tleParameters></data></segment></body></omm>
<omm id="CCSDS_OMM_VERS" version="2.0">
<header><CREATION_DATE/><ORIGINATOR/></header><body><segment><metadata><OBJECT_NAME>ORBCOMM FM110</OBJECT_NAME><OBJECT_ID>2015-081D</OBJECT_ID><CENTER_NAME>EARTH</CENTER_NAME><REF_FRAME>TEME</REF_FRAME><TIME_SYSTEM>UTC</TIME_SYSTEM><MEAN_ELEMENT_THEORY>SGP4</MEAN_ELEMENT_THEORY></metadata><data><meanElements><EPOCH>2025-05-31T21:10:09.457824</EPOCH><MEAN_MOTION>14.57998679</MEAN_MOTION><ECCENTRICITY>.0001187</ECCENTRICITY><INCLINATION>47.0035</INCLINATION><RA_OF_ASC_NODE>3.2889</RA_OF_ASC_NODE><ARG_OF_PERICENTER>105.4511</ARG_OF_PERICENTER><MEAN_ANOMALY>254.6505</MEAN_ANOMALY></meanElements><tleParameters><EPHEMERIS_TYPE>0</EPHEMERIS_TYPE><CLASSIFICATION_TYPE>U</CLASSIFICATION_TYPE><NORAD_CAT_ID>41182</NORAD_CAT_ID><ELEMENT_SET_NO>999</ELEMENT_SET_NO><REV_AT_EPOCH>50196</REV_AT_EPOCH><BSTAR>.21715E-3</BSTAR><MEAN_MOTION_DOT>.838E-5</MEAN_MOTION_DOT><MEAN_MOTION_DDOT>0</MEAN_MOTION_DDOT></tleParameters></data></segment></body></omm>
<omm id="CCSDS_OMM_VERS" version="2.0">
<header><CREATION_DATE/><ORIGINATOR/></header><body><segment><metadata><OBJECT_NAME>ORBCOMM FM118</OBJECT_NAME><OBJECT_ID>2015-081E</OBJECT_ID><CENTER_NAME>EARTH</CENTER_NAME><REF_FRAME>TEME</REF_FRAME><TIME_SYSTEM>UTC</TIME_SYSTEM><MEAN_ELEMENT_THEORY>SGP4</MEAN_ELEMENT_THEORY></metadata><data><meanElements><EPOCH>2025-05-31T20:37:40.622016</EPOCH><MEAN_MOTION>14.58401125</MEAN_MOTION><ECCENTRICITY>.0003569</ECCENTRICITY><INCLINATION>47.0056</INCLINATION><RA_OF_ASC_NODE>3.7822</RA_OF_ASC_NODE><ARG_OF_PERICENTER>73.9511</ARG_OF_PERICENTER><MEAN_ANOMALY>286.1768</MEAN_ANOMALY></meanElements><tleParameters><EPHEMERIS_TYPE>0</EPHEMERIS_TYPE><CLASSIFICATION_TYPE>U</CLASSIFICATION_TYPE><NORAD_CAT_ID>41183</NORAD_CAT_ID><ELEMENT_SET_NO>999</ELEMENT_SET_NO><REV_AT_EPOCH>50206</REV_AT_EPOCH><BSTAR>.22396E-3</BSTAR><MEAN_MOTION_DOT>.877E-5</MEAN_MOTION_DOT><MEAN_MOTION_DDOT>0</MEAN_MOTION_DDOT></tleParameters></data></segment></body></omm>
<omm id="CCSDS_OMM_VERS" version="2.0">
<header><CREATION_DATE/><ORIGINATOR/></header><body><segment><metadata><OBJECT_NAME>ORBCOMM FM112</OBJECT_NAME><OBJECT_ID>2015-081F</OBJECT_ID><CENTER_NAME>EARTH</CENTER_NAME><REF_FRAME>TEME</REF_FRAME><TIME_SYSTEM>UTC</TIME_SYSTEM><MEAN_ELEMENT_THEORY>SGP4</MEAN_ELEMENT_THEORY></metadata><data><meanElements><EPOCH>2025-05-31T17:26:53.130048</EPOCH><MEAN_MOTION>14.58147529</MEAN_MOTION><ECCENTRICITY>.0001937</ECCENTRICITY><INCLINATION>46.9992</INCLINATION><RA_OF_ASC_NODE>273.0529</RA_OF_ASC_NODE><ARG_OF_PERICENTER>266.5306</ARG_OF_PERICENTER><MEAN_ANOMALY>93.5357</MEAN_ANOMALY></meanElements><tleParameters><EPHEMERIS_TYPE>0</EPHEMERIS_TYPE><CLASSIFICATION_TYPE>U</CLASSIFICATION_TYPE><NORAD_CAT_ID>41184</NORAD_CAT_ID><ELEMENT_SET_NO>999</ELEMENT_SET_NO><REV_AT_EPOCH>50326</REV_AT_EPOCH><BSTAR>.20347E-3</BSTAR><MEAN_MOTION_DOT>.777E-5</MEAN_MOTION_DOT><MEAN_MOTION_DDOT>0</MEAN_MOTION_DDOT></tleParameters></data></segment></body></omm>
<omm id="CCSDS_OMM_VERS" version="2.0">
<header><CREATION_DATE/><ORIGINATOR/></header><body><segment><metadata><OBJECT_NAME>ORBCOMM FM113</OBJECT_NAME><OBJECT_ID>2015-081G</OBJECT_ID><CENTER_NAME>EARTH</CENTER_NAME><REF_FRAME>TEME</REF_FRAME><TIME_SYSTEM>UTC</TIME_SYSTEM><MEAN_ELEMENT_THEORY>SGP4</MEAN_ELEMENT_THEORY></metadata><data><meanElements><EPOCH>2025-05-31T15:14:46.595328</EPOCH><MEAN_MOTION>14.58154950</MEAN_MOTION><ECCENTRICITY>.0001735</ECCENTRICITY><INCLINATION>47.0010</INCLINATION><RA_OF_ASC_NODE>273.8081</RA_OF_ASC_NODE><ARG_OF_PERICENTER>277.6148</ARG_OF_PERICENTER><MEAN_ANOMALY>82.4540</MEAN_ANOMALY></meanElements><tleParameters><EPHEMERIS_TYPE>0</EPHEMERIS_TYPE><CLASSIFICATION_TYPE>U</CLASSIFICATION_TYPE><NORAD_CAT_ID>41185</NORAD_CAT_ID><ELEMENT_SET_NO>999</ELEMENT_SET_NO><REV_AT_EPOCH>50330</REV_AT_EPOCH><BSTAR>.20154E-3</BSTAR><MEAN_MOTION_DOT>.768E-5</MEAN_MOTION_DOT><MEAN_MOTION_DDOT>0</MEAN_MOTION_DDOT></tleParameters></data></segment></body></omm>

</ndm>
