ORBCOMM FM103           
1 40091U 14040F   25151.53592831  .00000619  00000+0  16951-3 0  9993
2 40091  47.0052  96.4385 0001968 228.7554 131.3162 14.58147403561675
ORBCOMM FM114           
1 41179U 15081A   25151.28391429  .00000526  00000+0  14940-3 0  9992
2 41179  47.0044   6.6869 0002563 270.7179  89.3413 14.58188425502008
ORBCOMM FM119           
1 41180U 15081B   25151.61375646  .00000553  00000+0  15545-3 0  9996
2 41180  47.0008 274.4359 0001434 300.5956  59.4788 14.58123069503300
ORBCOMM FM105           
1 41181U 15081C   25151.62953888  .00000229  00000+0  10933-3 0  9994
2 41181  47.0018 277.7001 0002443 246.5828 113.4796 14.45210052498465
ORBCOMM FM110           
1 41182U 15081D   25151.88205391  .00000838  00000+0  21715-3 0  9998
2 41182  47.0035   3.2889 0001187 105.4511 254.6505 14.57998679501964
ORBCOMM FM118           
1 41183U 15081E   25151.85949794  .00000877  00000+0  22396-3 0  9997
2 41183  47.0056   3.7822 0003569  73.9511 286.1768 14.58401125502064
ORBCOMM FM112           
1 41184U 15081F   25151.72700382  .00000777  00000+0  20347-3 0  9995
2 41184  46.9992 273.0529 0001937 266.5306  93.5357 14.58147529503269
ORBCOMM FM113           
1 41185U 15081G   25151.63526152  .00000768  00000+0  20154-3 0  9993
2 41185  47.0010 273.8081 0001735 277.6148  82.4540 14.58154950503309
